STARLINK-34571          
1 64914U 25157L   26200.12734017  .00008932  00000+0  27517-3 0  9995
2 64914  53.1583  94.0103 0001486  98.4718 261.6453 15.34400612 56211
STARLINK-34636          
1 64915U 25157M   26200.10209127  .00006444  00000+0  20168-3 0  9994
2 64915  53.1593  93.8469 0001318  95.5377 264.5776 15.34399397 56260
STARLINK-34695          
1 64916U 25157N   26200.00807864  .00009689  00000+0  29745-3 0  9990
2 64916  53.1575  86.8787 0001174 103.1208 256.9926 15.34408598 56351
STARLINK-34653          
1 64917U 25157P   26200.11810541  .00013662  00000+0  45098-3 0  9994
2 64917  53.1578  94.6578 0001037  81.4306 278.6813 15.31716691 56208
STARLINK-34611          
1 64918U 25157Q   26200.41935961  .00009459  00000+0  29080-3 0  9994
2 64918  53.1584  92.2778 0001263  94.0203 266.0944 15.34393009 56314
STARLINK-34599          
1 64919U 25157R   26200.08955550  .00008469  00000+0  26148-3 0  9996
2 64919  53.1596  94.4726 0001223  90.3419 269.7724 15.34403564 56256
STARLINK-34069          
1 64920U 25157S   26199.99076998  .00020535  00000+0  61759-3 0  9990
2 64920  53.1580  94.5812 0001179  74.2324 285.8809 15.34382305 56245
STARLINK-34699          
1 64921U 25157T   26200.41725073  .00007425  00000+0  23066-3 0  9998
2 64921  53.1585  92.2605 0001341  92.6555 267.4601 15.34400832 56317
STARLINK-34700          
1 64922U 25157U   26200.40892361  .00009995  00000+0  30658-3 0  9992
2 64922  53.1586  92.9219 0001307 106.7365 253.3781 15.34397660 56255
STARLINK-34643          
1 64923U 25157V   26200.43829217  .00019430  00000+0  58509-3 0  9996
2 64923  53.1586  92.3920 0001486  85.5328 274.5845 15.34378535 56313
STARLINK-34199          
1 64924U 25157W   26200.00151348  .00005669  00000+0  19423-3 0  9994
2 64924  53.1570  94.6440 0001251  89.8994 270.2151 15.31712905 56194
STARLINK-34579          
1 64925U 25157X   26200.11473127  .00022512  00000+0  67665-3 0  9996
2 64925  53.1578  93.9295 0001011  69.6150 290.4961 15.34341978 56269
STARLINK-34543          
1 64926U 25157Y   26200.11343867  .00010717  00000+0  35629-3 0  9993
2 64926  53.1579  94.6280 0001287  82.7164 277.3984 15.31729324 56204
STARLINK-34661          
1 64927U 25157Z   26199.98023516  .00011997  00000+0  36560-3 0  9998
2 64927  53.1592  94.5011 0001382  87.2159 272.9001 15.34402738 55964
STARLINK-34248          
1 64928U 25157AA  26199.95086059  .00007720  00000+0  23931-3 0  9994
2 64928  53.1589  95.0383 0001176  81.3422 278.7714 15.34409060 56239
STARLINK-34290          
1 64929U 25157AB  26200.02021370  .00008251  00000+0  25508-3 0  9993
2 64929  53.1585  94.7615 0001745  84.8279 275.2923 15.34397446 56249
STARLINK-34220          
1 64930U 25157AC  26200.40234730  .00008710  00000+0  29198-3 0  9992
2 64930  53.1576  92.8689 0001135  90.1401 269.9730 15.31712115 56192
STARLINK-34715          
1 64931U 25157AD  26200.12312941  .00016074  00000+0  48603-3 0  9997
2 64931  53.1583  93.9792 0001320  81.5674 278.5478 15.34386881 56263
STARLINK-34705          
1 64932U 25158A   26200.34994835  .00001883  00000+0  13433-3 0  9996
2 64932  97.2846  61.5471 0002722  76.0177 284.1353 15.05658048 55162
STARLINK-34737          
1 64933U 25158B   26200.20595460  .00000991  00000+0  72563-4 0  9992
2 64933  97.2860  61.4397 0002753  85.8831 274.2711 15.05657694 55146
STARLINK-34775          
1 64934U 25158C   26200.33610678  .00001026  00000+0  74994-4 0  9996
2 64934  97.2858  61.5772 0002419  87.9703 272.1802 15.05662790 55165
STARLINK-34726          
1 64935U 25158D   26200.18104048  .00002538  00000+0  17967-3 0  9994
2 64935  97.2840  61.4810 0002350  72.9933 287.1552 15.05660920 55141
STARLINK-34529          
1 64936U 25158E   26200.14503401  .00001990  00000+0  14172-3 0  9993
2 64936  97.2856  61.3755 0002441  87.9342 272.2166 15.05659323 55137
STARLINK-34743          
1 64937U 25158F   26200.33332699  .00007889  00000+0  54941-3 0  9995
2 64937  97.2850  61.5823 0002909  86.0875 274.0686 15.05691080 55166
STARLINK-34730          
1 64938U 25158G   26200.49394803  .00001914  00000+0  13648-3 0  9990
2 64938  97.2852  61.8134 0002195  84.5199 275.6279 15.05659396 55198
STARLINK-34714          
1 64939U 25158H   26200.56317716  .00002133  00000+0  15168-3 0  9990
2 64939  97.2846  61.8817 0002478  79.5253 280.6254 15.05658838 55042
STARLINK-34755          
1 64940U 25158J   26200.56108456  .00002106  00000+0  15305-3 0  9994
2 64940  97.2856  62.0778 0002343  76.3377 283.8111 15.04844647 55217
STARLINK-34740          
1 64941U 25158K   26200.37765794  .00002965  00000+0  20926-3 0  9996
2 64941  97.2836  61.6739 0002444  80.5903 279.5601 15.05653625 55112
STARLINK-34742          
1 64942U 25158L   26200.57148396  .00001434  00000+0  10321-3 0  9990
2 64942  97.2847  61.8608 0002559  79.3954 280.7562 15.05658902 55204
STARLINK-34719          
1 64943U 25158M   26200.58256521  .00000183  00000+0  16585-4 0  9991
2 64943  97.2840  61.8543 0003198  78.7950 281.3637 15.05650377 55203
