OBJECT_NAME,OBJECT_ID,EPOCH,MEAN_MOTION,ECCENTRICITY,INCLINATION,RA_OF_ASC_NODE,ARG_OF_PERICENTER,MEAN_ANOMALY,EPHEMERIS_TYPE,CLASSIFICATION_TYPE,NORAD_CAT_ID,ELEMENT_SET_NO,REV_AT_EPOCH,BSTAR,MEAN_MOTION_DOT,MEAN_MOTION_DDOT
STARLINK-34571,2025-157L,2026-07-19T03:03:22.190688,15.34400612,.00014862,53.1583,94.0103,98.4718,261.6453,0,U,64914,999,5621,.27516913E-3,.8932E-4,0
STARLINK-34636,2025-157M,2026-07-19T02:27:00.685728,15.34399397,.00013181,53.1593,93.8469,95.5377,264.5776,0,U,64915,999,5626,.2016812E-3,.6444E-4,0
STARLINK-34695,2025-157N,2026-07-19T00:11:37.994496,15.34408598,.00011744,53.1575,86.8787,103.1208,256.9926,0,U,64916,999,5635,.2974543E-3,.9689E-4,0
STARLINK-34653,2025-157P,2026-07-19T02:50:04.307424,15.31716691,.00010378,53.1578,94.6578,81.4306,278.6813,0,U,64917,999,5620,.45098211E-3,.13662E-3,0
STARLINK-34611,2025-157Q,2026-07-19T10:03:52.670304,15.34393009,.00012639,53.1584,92.2778,94.0203,266.0944,0,U,64918,999,5631,.29079648E-3,.9459E-4,0
STARLINK-34599,2025-157R,2026-07-19T02:08:57.595200,15.34403564,.00012238,53.1596,94.4726,90.3419,269.7724,0,U,64919,999,5625,.26148016E-3,.8469E-4,0
STARLINK-34069,2025-157S,2026-07-18T23:46:42.526272,15.34382305,.00011794,53.1580,94.5812,74.2324,285.8809,0,U,64920,999,5624,.61758606E-3,.20535E-3,0
STARLINK-34699,2025-157T,2026-07-19T10:00:50.463072,15.34400832,.00013412,53.1585,92.2605,92.6555,267.4601,0,U,64921,999,5631,.23066245E-3,.7425E-4,0
STARLINK-34700,2025-157U,2026-07-19T09:48:50.999904,15.34397660,.00013077,53.1586,92.9219,106.7365,253.3781,0,U,64922,999,5625,.3065806E-3,.9995E-4,0
STARLINK-34643,2025-157V,2026-07-19T10:31:08.443488,15.34378535,.00014861,53.1586,92.3920,85.5328,274.5845,0,U,64923,999,5631,.58508522E-3,.1943E-3,0
STARLINK-34199,2025-157W,2026-07-19T00:02:10.764672,15.31712905,.00012516,53.1570,94.6440,89.8994,270.2151,0,U,64924,999,5619,.19422699E-3,.5669E-4,0
STARLINK-34579,2025-157X,2026-07-19T02:45:12.781728,15.34341978,.00010112,53.1578,93.9295,69.6150,290.4961,0,U,64925,999,5626,.67664808E-3,.22512E-3,0
STARLINK-34543,2025-157Y,2026-07-19T02:43:21.101088,15.31729324,.00012876,53.1579,94.6280,82.7164,277.3984,0,U,64926,999,5620,.35629448E-3,.10717E-3,0
STARLINK-34661,2025-157Z,2026-07-18T23:31:32.317824,15.34402738,.00013822,53.1592,94.5011,87.2159,272.9001,0,U,64927,999,5596,.36559676E-3,.11997E-3,0
STARLINK-34248,2025-157AA,2026-07-18T22:49:14.354976,15.34409060,.00011767,53.1589,95.0383,81.3422,278.7714,0,U,64928,999,5623,.23930598E-3,.772E-4,0
STARLINK-34290,2025-157AB,2026-07-19T00:29:06.463680,15.34397446,.00017451,53.1585,94.7615,84.8279,275.2923,0,U,64929,999,5624,.25507773E-3,.8251E-4,0
STARLINK-34220,2025-157AC,2026-07-19T09:39:22.806720,15.31712115,.00011353,53.1576,92.8689,90.1401,269.9730,0,U,64930,999,5619,.29198335E-3,.871E-4,0
STARLINK-34715,2025-157AD,2026-07-19T02:57:18.381024,15.34386881,.00013204,53.1583,93.9792,81.5674,278.5478,0,U,64931,999,5626,.4860322E-3,.16074E-3,0
STARLINK-34705,2025-158A,2026-07-19T08:23:55.537440,15.05658048,.00027225,97.2846,61.5471,76.0177,284.1353,0,U,64932,999,5516,.13433447E-3,.1883E-4,0
STARLINK-34737,2025-158B,2026-07-19T04:56:34.477440,15.05657694,.00027532,97.2860,61.4397,85.8831,274.2711,0,U,64933,999,5514,.72562631E-4,.991E-5,0
STARLINK-34775,2025-158C,2026-07-19T08:03:59.625792,15.05662790,.0002419,97.2858,61.5772,87.9703,272.1802,0,U,64934,999,5516,.74993951E-4,.1026E-4,0
STARLINK-34726,2025-158D,2026-07-19T04:20:41.897472,15.05660920,.00023506,97.2840,61.4810,72.9933,287.1552,0,U,64935,999,5514,.17967365E-3,.2538E-4,0
STARLINK-34529,2025-158E,2026-07-19T03:28:50.938464,15.05659323,.00024413,97.2856,61.3755,87.9342,272.2166,0,U,64936,999,5513,.14171922E-3,.199E-4,0
STARLINK-34743,2025-158F,2026-07-19T07:59:59.451936,15.05691080,.00029094,97.2850,61.5823,86.0875,274.0686,0,U,64937,999,5516,.54941222E-3,.7889E-4,0
STARLINK-34730,2025-158G,2026-07-19T11:51:17.109792,15.05659396,.00021951,97.2852,61.8134,84.5199,275.6279,0,U,64938,999,5519,.13647635E-3,.1914E-4,0
STARLINK-34714,2025-158H,2026-07-19T13:30:58.506624,15.05658838,.00024783,97.2846,61.8817,79.5253,280.6254,0,U,64939,999,5504,.15167602E-3,.2133E-4,0
STARLINK-34755,2025-158J,2026-07-19T13:27:57.705984,15.04844647,.00023434,97.2856,62.0778,76.3377,283.8111,0,U,64940,999,5521,.1530497E-3,.2106E-4,0
STARLINK-34740,2025-158K,2026-07-19T09:03:49.646016,15.05653625,.00024446,97.2836,61.6739,80.5903,279.5601,0,U,64941,999,5511,.20926266E-3,.2965E-4,0
STARLINK-34742,2025-158L,2026-07-19T13:42:56.214144,15.05658902,.0002559,97.2847,61.8608,79.3954,280.7562,0,U,64942,999,5520,.10321465E-3,.1434E-4,0
STARLINK-34719,2025-158M,2026-07-19T13:58:53.634144,15.05650377,.00031985,97.2840,61.8543,78.7950,281.3637,0,U,64943,999,5520,.16585368E-4,.183E-5,0
